UNKNOWN                 
1 85023U          26092.08457380  .00030967  00000+0  39336-2 0  9992
2 85023  99.8354 136.8805 0000963 160.1103 228.9922 14.81582865645130
UNKNOWN                 
1 85027U          26094.23382408  .00000216  00000+0  28215-3 0  9992
2 85027  66.0417 186.0304 0168375 129.8725 231.7286 13.74298277620078
UNKNOWN                 
1 85047U          26092.92255610  .00018006  00000+0  28158-1 0  9992
2 85047 102.1676  86.7472 0126810 123.7581 237.5699 13.47273534591610
UNKNOWN                 
1 85061U          26093.96077463  .00004687  00000+0  18539-1 0  9993
2 85061 102.4037  93.1070 0263778 332.4265  84.3946 12.77886798570118
UNKNOWN                 
1 85100U          26091.07487483  .00000438  00000+0  14496-3 0  9994
2 85100  74.0480  20.6343 0013440 225.0229 152.2993 14.40814286649098
UNKNOWN                 
1 85106U          26094.57200366  .00000810  00000+0  92836-3 0  9999
2 85106 100.0545 205.9836 0010799  89.1352 290.6839 13.73069635618559
UNKNOWN                 
1 85151U          26094.62977800  .00031489  00000+0  37308-2 0  9997
2 85151  98.3959 329.1227 0008024 128.8090 231.3840 14.84447397496240
UNKNOWN                 
1 85210U          26090.68657712  .00000412  00000+0  43080-3 0  9999
2 85210  99.8645 239.6912 0215263  35.7962 340.9039 13.71687155617097
UNKNOWN                 
1 85217U          26094.48621271  .00005250  00000+0  13670-2 0  9995
2 85217  98.0217 186.5155 0207577 147.2890 214.1353 14.37847037644054
UNKNOWN                 
1 85237U          26092.79651278  .00003217  00000+0  65095-3 0  9999
2 85237  65.5310 283.0937 0516879 337.1689  20.7120 14.02481153623914
UNKNOWN                 
1 85238U          26094.56742941  .00000070  00000+0  93248-4 0  9991
2 85238  99.0704  25.5708 0062357 255.4933 279.5065 13.88365505626493
UNKNOWN                 
1 85246U          26093.94800913  .00003522  00000+0  12583-2 0  9991
2 85246  97.9919  91.9670 0221488 333.3158  25.6759 14.21912486639015
UNKNOWN                 
1 85373U          26094.37588142  .00003519  00000+0  23783-2 0  9997
2 85373 100.4265 151.0806 0050243 302.1841 118.3421 14.00571664627896
UNKNOWN                 
1 85423U          26080.09226852 -.00000119  00000+0  00000+0 0  9992
2 85423   0.2500  63.9100 0237500 184.1600 179.3500  1.04170165    18
UNKNOWN                 
1 85431U          26093.35914132  .00001901  00000+0  44348-3 0  9995
2 85431  29.0615  94.3871 0654717  57.2715 308.9262 13.68342064  2587
UNKNOWN                 
1 85448U          26072.61808446 -.00000384  00000+0  00000+0 0  9997
2 85448  41.4606 155.5047 0007289 313.6966 141.3444 15.68404032    03
UNKNOWN                 
1 87014U          26094.41515572  .00003267  00000+0  49688-2 0  9995
2 87014 100.4806  69.9546 0051571 332.0905 182.5796 13.52484360606142
