[{"OBJECT_NAME":"UNKNOWN","OBJECT_ID":"","EPOCH":"2026-04-02T02:01:47.176320","MEAN_MOTION":14.81582865,"ECCENTRICITY":9.63e-5,"INCLINATION":99.8354,"RA_OF_ASC_NODE":136.8805,"ARG_OF_PERICENTER":160.1103,"MEAN_ANOMALY":228.9922,"EPHEMERIS_TYPE":0,"CLASSIFICATION_TYPE":"U","NORAD_CAT_ID":85023,"ELEMENT_SET_NO":999,"REV_AT_EPOCH":64513,"BSTAR":0.0039336,"MEAN_MOTION_DOT":0.00030967,"MEAN_MOTION_DDOT":0},{"OBJECT_NAME":"UNKNOWN","OBJECT_ID":"","EPOCH":"2026-04-04T05:36:42.400512","MEAN_MOTION":13.74298277,"ECCENTRICITY":0.0168375,"INCLINATION":66.0417,"RA_OF_ASC_NODE":186.0304,"ARG_OF_PERICENTER":129.8725,"MEAN_ANOMALY":231.7286,"EPHEMERIS_TYPE":0,"CLASSIFICATION_TYPE":"U","NORAD_CAT_ID":85027,"ELEMENT_SET_NO":999,"REV_AT_EPOCH":62007,"BSTAR":0.00028215,"MEAN_MOTION_DOT":2.16e-6,"MEAN_MOTION_DDOT":0},{"OBJECT_NAME":"UNKNOWN","OBJECT_ID":"","EPOCH":"2026-04-02T22:08:28.847040","MEAN_MOTION":13.47273534,"ECCENTRICITY":0.012681,"INCLINATION":102.1676,"RA_OF_ASC_NODE":86.7472,"ARG_OF_PERICENTER":123.7581,"MEAN_ANOMALY":237.5699,"EPHEMERIS_TYPE":0,"CLASSIFICATION_TYPE":"U","NORAD_CAT_ID":85047,"ELEMENT_SET_NO":999,"REV_AT_EPOCH":59161,"BSTAR":0.028158,"MEAN_MOTION_DOT":0.00018006,"MEAN_MOTION_DDOT":0},{"OBJECT_NAME":"UNKNOWN","OBJECT_ID":"","EPOCH":"2026-04-03T23:03:30.928032","MEAN_MOTION":12.77886798,"ECCENTRICITY":0.0263778,"INCLINATION":102.4037,"RA_OF_ASC_NODE":93.107,"ARG_OF_PERICENTER":332.4265,"MEAN_ANOMALY":84.3946,"EPHEMERIS_TYPE":0,"CLASSIFICATION_TYPE":"U","NORAD_CAT_ID":85061,"ELEMENT_SET_NO":999,"REV_AT_EPOCH":57011,"BSTAR":0.018539,"MEAN_MOTION_DOT":4.687e-5,"MEAN_MOTION_DDOT":0},{"OBJECT_NAME":"UNKNOWN","OBJECT_ID":"","EPOCH":"2026-04-01T01:47:49.185312","MEAN_MOTION":14.40814286,"ECCENTRICITY":0.001344,"INCLINATION":74.048,"RA_OF_ASC_NODE":20.6343,"ARG_OF_PERICENTER":225.0229,"MEAN_ANOMALY":152.2993,"EPHEMERIS_TYPE":0,"CLASSIFICATION_TYPE":"U","NORAD_CAT_ID":85100,"ELEMENT_SET_NO":999,"REV_AT_EPOCH":64909,"BSTAR":0.00014496,"MEAN_MOTION_DOT":4.38e-6,"MEAN_MOTION_DDOT":0},{"OBJECT_NAME":"UNKNOWN","OBJECT_ID":"","EPOCH":"2026-04-04T13:43:41.116224","MEAN_MOTION":13.73069635,"ECCENTRICITY":0.0010799,"INCLINATION":100.0545,"RA_OF_ASC_NODE":205.9836,"ARG_OF_PERICENTER":89.1352,"MEAN_ANOMALY":290.6839,"EPHEMERIS_TYPE":0,"CLASSIFICATION_TYPE":"U","NORAD_CAT_ID":85106,"ELEMENT_SET_NO":999,"REV_AT_EPOCH":61855,"BSTAR":0.00092836,"MEAN_MOTION_DOT":8.1e-6,"MEAN_MOTION_DDOT":0},{"OBJECT_NAME":"UNKNOWN","OBJECT_ID":"","EPOCH":"2026-04-04T15:06:52.819200","MEAN_MOTION":14.84447397,"ECCENTRICITY":0.0008024,"INCLINATION":98.3959,"RA_OF_ASC_NODE":329.1227,"ARG_OF_PERICENTER":128.809,"MEAN_ANOMALY":231.384,"EPHEMERIS_TYPE":0,"CLASSIFICATION_TYPE":"U","NORAD_CAT_ID":85151,"ELEMENT_SET_NO":999,"REV_AT_EPOCH":49624,"BSTAR":0.0037308,"MEAN_MOTION_DOT":0.00031489,"MEAN_MOTION_DDOT":0},{"OBJECT_NAME":"UNKNOWN","OBJECT_ID":"","EPOCH":"2026-03-31T16:28:40.263168","MEAN_MOTION":13.71687155,"ECCENTRICITY":0.0215263,"INCLINATION":99.8645,"RA_OF_ASC_NODE":239.6912,"ARG_OF_PERICENTER":35.7962,"MEAN_ANOMALY":340.9039,"EPHEMERIS_TYPE":0,"CLASSIFICATION_TYPE":"U","NORAD_CAT_ID":85210,"ELEMENT_SET_NO":999,"REV_AT_EPOCH":61709,"BSTAR":0.0004308,"MEAN_MOTION_DOT":4.12e-6,"MEAN_MOTION_DDOT":0},{"OBJECT_NAME":"UNKNOWN","OBJECT_ID":"","EPOCH":"2026-04-04T11:40:08.778144","MEAN_MOTION":14.37847037,"ECCENTRICITY":0.0207577,"INCLINATION":98.0217,"RA_OF_ASC_NODE":186.5155,"ARG_OF_PERICENTER":147.289,"MEAN_ANOMALY":214.1353,"EPHEMERIS_TYPE":0,"CLASSIFICATION_TYPE":"U","NORAD_CAT_ID":85217,"ELEMENT_SET_NO":999,"REV_AT_EPOCH":64405,"BSTAR":0.001367,"MEAN_MOTION_DOT":5.25e-5,"MEAN_MOTION_DDOT":0},{"OBJECT_NAME":"UNKNOWN","OBJECT_ID":"","EPOCH":"2026-04-02T19:06:58.704192","MEAN_MOTION":14.02481153,"ECCENTRICITY":0.0516879,"INCLINATION":65.531,"RA_OF_ASC_NODE":283.0937,"ARG_OF_PERICENTER":337.1689,"MEAN_ANOMALY":20.712,"EPHEMERIS_TYPE":0,"CLASSIFICATION_TYPE":"U","NORAD_CAT_ID":85237,"ELEMENT_SET_NO":999,"REV_AT_EPOCH":62391,"BSTAR":0.00065095,"MEAN_MOTION_DOT":3.217e-5,"MEAN_MOTION_DDOT":0},{"OBJECT_NAME":"UNKNOWN","OBJECT_ID":"","EPOCH":"2026-04-04T13:37:05.901024","MEAN_MOTION":13.88365505,"ECCENTRICITY":0.0062357,"INCLINATION":99.0704,"RA_OF_ASC_NODE":25.5708,"ARG_OF_PERICENTER":255.4933,"MEAN_ANOMALY":279.5065,"EPHEMERIS_TYPE":0,"CLASSIFICATION_TYPE":"U","NORAD_CAT_ID":85238,"ELEMENT_SET_NO":999,"REV_AT_EPOCH":62649,"BSTAR":9.3248e-5,"MEAN_MOTION_DOT":7.0e-7,"MEAN_MOTION_DDOT":0},{"OBJECT_NAME":"UNKNOWN","OBJECT_ID":"","EPOCH":"2026-04-03T22:45:07.988832","MEAN_MOTION":14.21912486,"ECCENTRICITY":0.0221488,"INCLINATION":97.9919,"RA_OF_ASC_NODE":91.967,"ARG_OF_PERICENTER":333.3158,"MEAN_ANOMALY":25.6759,"EPHEMERIS_TYPE":0,"CLASSIFICATION_TYPE":"U","NORAD_CAT_ID":85246,"ELEMENT_SET_NO":999,"REV_AT_EPOCH":63901,"BSTAR":0.0012583,"MEAN_MOTION_DOT":3.522e-5,"MEAN_MOTION_DDOT":0},{"OBJECT_NAME":"UNKNOWN","OBJECT_ID":"","EPOCH":"2026-04-04T09:01:16.154688","MEAN_MOTION":14.00571664,"ECCENTRICITY":0.0050243,"INCLINATION":100.4265,"RA_OF_ASC_NODE":151.0806,"ARG_OF_PERICENTER":302.1841,"MEAN_ANOMALY":118.3421,"EPHEMERIS_TYPE":0,"CLASSIFICATION_TYPE":"U","NORAD_CAT_ID":85373,"ELEMENT_SET_NO":999,"REV_AT_EPOCH":62789,"BSTAR":0.0023783,"MEAN_MOTION_DOT":3.519e-5,"MEAN_MOTION_DDOT":0},{"OBJECT_NAME":"UNKNOWN","OBJECT_ID":"","EPOCH":"2026-03-21T02:12:52.000128","MEAN_MOTION":1.04170165,"ECCENTRICITY":0.02375,"INCLINATION":0.25,"RA_OF_ASC_NODE":63.91,"ARG_OF_PERICENTER":184.16,"MEAN_ANOMALY":179.35,"EPHEMERIS_TYPE":0,"CLASSIFICATION_TYPE":"U","NORAD_CAT_ID":85423,"ELEMENT_SET_NO":999,"REV_AT_EPOCH":1,"BSTAR":0,"MEAN_MOTION_DOT":-1.19e-6,"MEAN_MOTION_DDOT":0},{"OBJECT_NAME":"UNKNOWN","OBJECT_ID":"","EPOCH":"2026-04-03T08:37:09.810048","MEAN_MOTION":13.68342064,"ECCENTRICITY":0.0654717,"INCLINATION":29.0615,"RA_OF_ASC_NODE":94.3871,"ARG_OF_PERICENTER":57.2715,"MEAN_ANOMALY":308.9262,"EPHEMERIS_TYPE":0,"CLASSIFICATION_TYPE":"U","NORAD_CAT_ID":85431,"ELEMENT_SET_NO":999,"REV_AT_EPOCH":258,"BSTAR":0.00044348,"MEAN_MOTION_DOT":1.901e-5,"MEAN_MOTION_DDOT":0},{"OBJECT_NAME":"UNKNOWN","OBJECT_ID":"","EPOCH":"2026-03-13T14:50:02.497344","MEAN_MOTION":15.68404032,"ECCENTRICITY":0.0007289,"INCLINATION":41.4606,"RA_OF_ASC_NODE":155.5047,"ARG_OF_PERICENTER":313.6966,"MEAN_ANOMALY":141.3444,"EPHEMERIS_TYPE":0,"CLASSIFICATION_TYPE":"U","NORAD_CAT_ID":85448,"ELEMENT_SET_NO":999,"REV_AT_EPOCH":0,"BSTAR":0,"MEAN_MOTION_DOT":-3.84e-6,"MEAN_MOTION_DDOT":0},{"OBJECT_NAME":"UNKNOWN","OBJECT_ID":"","EPOCH":"2026-04-04T09:57:49.454208","MEAN_MOTION":13.5248436,"ECCENTRICITY":0.0051571,"INCLINATION":100.4806,"RA_OF_ASC_NODE":69.9546,"ARG_OF_PERICENTER":332.0905,"MEAN_ANOMALY":182.5796,"EPHEMERIS_TYPE":0,"CLASSIFICATION_TYPE":"U","NORAD_CAT_ID":87014,"ELEMENT_SET_NO":999,"REV_AT_EPOCH":60614,"BSTAR":0.0049688,"MEAN_MOTION_DOT":3.267e-5,"MEAN_MOTION_DDOT":0}]
